     2.11           N: GPS NAV DATA                         RINEX VERSION / TYPE
teqc  2019Feb25                         20221121 12:23:35UTCPGM / RUN BY / DATE
OSX ker:10.11.6|Core i5|gcc 4.3 -m64|OSX ker:10.10+|=+      COMMENT
    6.5193D-09  2.2352D-08 -5.9605D-08 -1.1921D-07          ION ALPHA
    8.6016D+04  9.8304D+04 -6.5536D+04 -5.2429D+05          ION BETA
   -5.587935447693D-09-1.687538997430D-14   405504     1533 DELTA-UTC: A0,A1,T,W
                                                            END OF HEADER
23 09  5 27  0  0  0.0 3.901324234903D-04 1.136868377216D-13 0.000000000000D+00
    1.600000000000D+01 8.712500000000D+01 4.493758611655D-09 1.029496721299D-01
    4.606321454048D-06 6.114627118222D-03 6.165355443954D-07 5.153610538483D+03
    2.592000000000D+05 8.009374141693D-08 1.703787276230D+00-7.823109626770D-08
    9.701360567808D-01 3.710000000000D+02 2.884593289700D+00-8.484996291296D-09
    3.453715289676D-10 1.000000000000D+00 1.533000000000D+03 0.000000000000D+00
    2.000000000000D+00 0.000000000000D+00-2.002343535423D-08 1.600000000000D+01
    2.520180000000D+05 4.000000000000D+00
29 09  5 27  0  0  0.0 2.404302358627D-05 3.865352482535D-12 0.000000000000D+00
    6.500000000000D+01 1.125000000000D+01 4.804842998140D-09-2.437352487800D+00
    5.066394805908D-07 3.434106707573D-03 6.614252924919D-06 5.153669649124D+03
    2.592000000000D+05-1.676380634308D-08-1.418051135179D+00 3.539025783539D-08
    9.594614463804D-01 2.507500000000D+02-1.321325064733D+00-7.983546832485D-09
    2.635824078367D-10 1.000000000000D+00 1.533000000000D+03 0.000000000000D+00
    2.000000000000D+00 0.000000000000D+00-8.847564458847D-09 6.500000000000D+01
    2.520180000000D+05 4.000000000000D+00
31 09  5 27  0  0  0.0-6.110873073339D-05-7.958078640513D-13 0.000000000000D+00
    7.000000000000D+01-1.285937500000D+02 4.464828835185D-09-1.650014206835D+00
   -6.515532732010D-06 7.057217648253D-03 4.094094038010D-06 5.153720354080D+03
    2.592000000000D+05-2.030283212662D-07 2.743887606664D+00 8.009374141693D-08
    9.729961362346D-01 3.092187500000D+02-1.139342431260D+00-8.157839806773D-09
   -1.835790753768D-10 1.000000000000D+00 1.533000000000D+03 0.000000000000D+00
    2.000000000000D+00 0.000000000000D+00-1.303851604462D-08 7.000000000000D+01
    2.520180000000D+05 4.000000000000D+00
13 09  5 27  0  0  0.0 2.980432473123D-04 9.094947017729D-13 0.000000000000D+00
    1.100000000000D+01 8.471875000000D+01 3.991237679641D-09 8.602650734476D-01
    4.302710294724D-06 4.131545661949D-03 8.866190910339D-07 5.153704547882D+03
    2.592000000000D+05-5.401670932770D-08 1.755822763214D+00-3.725290298462D-08
    9.946292757874D-01 3.770000000000D+02 1.573638580592D+00-8.226771249473D-09
    3.171560679661D-10 1.000000000000D+00 1.533000000000D+03 0.000000000000D+00
    2.000000000000D+00 0.000000000000D+00-1.117587089539D-08 1.100000000000D+01
    2.520180000000D+05 4.000000000000D+00
24 09  5 27  0  0  0.0 1.919828355312D-04 2.955857780762D-12 0.000000000000D+00
    8.900000000000D+01-1.206250000000D+01 4.693409785071D-09 2.477826129438D+00
   -5.532056093216D-07 6.698159500957D-03 8.286908268929D-06 5.153670183182D+03
    2.592000000000D+05-4.284083843231D-08-3.455685278934D-01 1.303851604462D-08
    9.508969797389D-01 2.166875000000D+02-6.501424339106D-01-7.853541417238D-09
   -7.068151559741D-10 1.000000000000D+00 1.533000000000D+03 0.000000000000D+00
    2.800000000000D+00 0.000000000000D+00-1.396983861923D-09 8.900000000000D+01
    2.520180000000D+05 4.000000000000D+00
16 09  5 27  0  0  0.0 4.753237590194D-05-3.410605131648D-12 0.000000000000D+00
    4.500000000000D+01-7.487500000000D+01 4.225175995540D-09 2.369055855908D+00
   -3.630295395851D-06 5.361497751437D-03 1.168996095657D-05 5.153557533264D+03
    2.592000000000D+05 9.313225746155D-09-2.468696831589D+00 1.266598701477D-07
    9.685540630216D-01 1.590312500000D+02-3.548724528107D-01-7.672819603734D-09
    3.210848030423D-10 1.000000000000D+00 1.533000000000D+03 0.000000000000D+00
    2.000000000000D+00 0.000000000000D+00-9.778887033463D-09 4.500000000000D+01
    2.520180000000D+05 4.000000000000D+00
25 09  5 27  0  0  0.0 4.324591718614D-04 1.898570189951D-11 0.000000000000D+00
    7.200000000000D+01-1.266875000000D+02 4.490901349782D-09 2.971939217197D+00
   -6.543472409248D-06 1.142178045120D-02 2.164393663406D-06 5.153655622482D+03
    2.592000000000D+05 2.011656761169D-07 2.651535833899D+00 1.806765794754D-07
    9.698184777466D-01 3.402500000000D+02-1.207017782324D+00-8.182483690432D-09
   -2.046513816944D-10 1.000000000000D+00 1.533000000000D+03 0.000000000000D+00
    2.800000000000D+00 0.000000000000D+00-7.450580596924D-09 7.200000000000D+01
    2.520360000000D+05 4.000000000000D+00
 6 09  5 27  0  0  0.0 1.383475027978D-04 1.455191522837D-11 0.000000000000D+00
    6.800000000000D+01 1.606250000000D+01 5.536302037774D-09 2.347804909555D+00
    9.145587682724D-07 5.995399784297D-03 5.891546607018D-06 5.153694707870D+03
    2.592000000000D+05 7.450580596924D-08-1.489530477015D+00-4.284083843231D-08
    9.333050109399D-01 2.441250000000D+02-1.361392477427D+00-8.344276144023D-09
    2.435815747217D-10 1.000000000000D+00 1.533000000000D+03 0.000000000000D+00
    2.000000000000D+00 0.000000000000D+00-4.656612873077D-09 6.800000000000D+01
    2.533260000000D+05 4.000000000000D+00
21 09  5 27  0  0  0.0 1.180218532681D-05-2.046363078989D-12 0.000000000000D+00
    6.000000000000D+01-1.778125000000D+01 5.076640033863D-09-2.444602813668D+00
   -1.098960638046D-06 1.529455336276D-02 8.350238204002D-06 5.153609783173D+03
    2.592000000000D+05 2.421438694000D-08-3.776713830033D-01-2.384185791016D-07
    9.342364801393D-01 2.037812500000D+02-2.601543840126D+00-8.048906697843D-09
   -4.832344143673D-10 1.000000000000D+00 1.533000000000D+03 0.000000000000D+00
    2.000000000000D+00 0.000000000000D+00-1.210719347000D-08 6.000000000000D+01
    2.534760000000D+05 4.000000000000D+00
10 09  5 27  0  0  0.0-1.659849658608D-05-5.684341886081D-13 0.000000000000D+00
    7.700000000000D+01 1.146562500000D+02 4.061240595544D-09 1.159890780484D+00
    6.066635251045D-06 8.592506055720D-03 1.129508018494D-05 5.153617155075D+03
    2.592000000000D+05-1.769512891769D-07 6.747336567251D-01 3.725290298462D-09
    9.586086982658D-01 1.602500000000D+02 6.272453068047D-01-7.825325956236D-09
   -2.439387324559D-10 1.000000000000D+00 1.533000000000D+03 0.000000000000D+00
    2.800000000000D+00 0.000000000000D+00-2.793967723846D-09 7.700000000000D+01
    2.541660000000D+05 4.000000000000D+00
 7 09  5 27  0  0  0.0 1.818360760808D-05-6.821210263297D-13 0.000000000000D+00
    6.400000000000D+01-1.354375000000D+02 4.565547316229D-09-1.471884206159D+00
   -7.133930921555D-06 2.573474310338D-03 3.261491656303D-06 5.153672470093D+03
    2.592000000000D+05 2.980232238770D-08 2.746010002362D+00-1.490116119385D-08
    9.676231277872D-01 3.214687500000D+02 2.876783443018D+00-8.327846888250D-09
   -1.728643433509D-10 1.000000000000D+00 1.533000000000D+03 0.000000000000D+00
    2.000000000000D+00 0.000000000000D+00-1.071020960808D-08 6.400000000000D+01
    2.549460000000D+05 4.000000000000D+00
 3 09  5 27  0  0  0.0 3.983415663242D-04 5.115907697473D-12 0.000000000000D+00
    9.800000000000D+01 1.587500000000D+01 5.804884653889D-09-1.067499134424D-01
    9.723007678986D-07 1.185449154582D-02 6.416812539101D-06 5.153621749878D+03
    2.592000000000D+05-3.166496753693D-08-1.557148357342D+00 1.601874828339D-07
    9.258354858156D-01 2.337500000000D+02 9.002437981963D-01-8.748935856867D-09
    3.310852195998D-10 1.000000000000D+00 1.533000000000D+03 0.000000000000D+00
    2.800000000000D+00 0.000000000000D+00-4.190951585770D-09 9.800000000000D+01
    2.550060000000D+05 4.000000000000D+00
19 09  5 27  0  0  0.0 2.448260784149D-05-1.136868377216D-12 0.000000000000D+00
    1.010000000000D+02 4.625000000000D+00 5.049138888330D-09 6.466516056235D-01
    5.029141902924D-08 5.613966262899D-03 5.844980478287D-06 5.153595249176D+03
    2.592000000000D+05 7.823109626770D-08-1.370170879745D+00 1.117587089539D-08
    9.569555876699D-01 2.603750000000D+02-3.622536981434D-01-8.194984211129D-09
    1.285767843106D-10 1.000000000000D+00 1.533000000000D+03 0.000000000000D+00
    2.000000000000D+00 0.000000000000D+00-1.443549990654D-08 1.010000000000D+02
    2.583960000000D+05 4.000000000000D+00
